SWARM A                 
1 39452U 13067B   26200.79702895  .00005815  00000+0  97671-4 0  9999
2 39452  87.3300  44.1135 0003338  92.0320 268.1324 15.51511977711307
SWARM C                 
1 39453U 13067C   26200.79693764  .00005905  00000+0  99195-4 0  9997
2 39453  87.3300  42.6943 0003323  91.6875 268.4767 15.51511513711267
BRITE-CA1 (TORONTO)     
1 40020U 14033L   26200.31108209  .00000524  00000+0  86289-4 0  9998
2 40020  97.9776 328.6539 0078789 173.0970 187.1343 14.72727256646944
OCO 2                   
1 40059U 14035A   26200.84191176  .00000178  00000+0  49446-4 0  9994
2 40059  98.2020 141.6393 0001413  80.6967 279.4391 14.57134252640800
BRITE-PL2 (HEWELIUSZ)   
1 40119U 14049B   26200.77530811  .00000744  00000+0  73988-4 0  9998
2 40119  97.9121 313.0328 0013872   7.3267 352.8153 14.94693226646315
MMS 1                   
1 40482U 15011A   26200.91667823 -.00001270  00000+0  00000+0 0  9997
2 40482  72.4968 348.4132 8300674 168.1738  37.1707  0.28304316  1376
MMS 2                   
1 40483U 15011B   26200.91667823 -.00001270  00000+0  00000+0 0  9998
2 40483  72.5008 348.4122 8303489 168.1765  37.1573  0.28304258  1375
MMS 3                   
1 40484U 15011C   26200.91667823 -.00001269  00000+0  00000+0 0  9997
2 40484  72.5005 348.4240 8301858 168.1843  37.1312  0.28304187  1348
MMS 4                   
1 40485U 15011D   26200.91667823 -.00001270  00000+0  00000+0 0  9990
2 40485  72.4960 348.4075 8301813 168.1942  37.1270  0.28304220  1379
ASTROSAT                
1 40930U 15052A   26200.71853516  .00001073  00000+0  48976-4 0  9993
2 40930   5.9969 281.1957 0007593 142.8012 217.2643 14.82555924584660
DAMPE                   
1 41173U 15078A   26200.85151889  .00000701  00000+0  26107-4 0  9999
2 41173  97.4568 206.4818 0011055 328.3810  31.6766 15.30860334589546
PISAT                   
1 41784U 16059B   26200.49833654  .00000417  00000+0  78635-4 0  9991
2 41784  97.8193 199.5653 0030552 101.6970 258.7667 14.69033802524480
HXMT (HUIYAN)           
1 42758U 17034A   26200.82380360  .00002097  00000+0  10961-3 0  9998
2 42758  43.0153   1.2782 0031711 349.8676  10.1530 15.18710911502629
FLYING LAPTOP           
1 42831U 17042G   26200.84554201  .00002067  00000+0  16447-3 0  9990
2 42831  97.4834 355.1546 0019453  17.7534 342.4366 15.01331609491352
ZHANGHENG 1-01 (CSES-1) 
1 43194U 18015C   26200.83909725  .00003409  00000+0  15818-3 0  9990
2 43194  97.6902   7.1502 0016760 149.4964 210.7249 15.20642968469601
SALSAT                  
1 46495U 20068K   26200.45326485  .00003827  00000+0  13372-3 0  9999
2 46495  97.8865 205.4942 0009671 177.8105 182.3178 15.30206359320291
IXPE                    
1 49954U 21121A   26200.83335647  .00006046  00000+0  30193-3 0  9991
2 49954   0.2300  70.1909 0006886 212.0370 267.0242 15.10512839  5673
SMILE                   
1 69123U 26109A   26194.95939329  .00000936  00000+0  00000+0 0  9996
2 69123  70.0512 206.6048 8313707 286.9544   0.1879  0.47500629    65
